{
  "type": "FeatureCollection",
  "features": [
    {
      "type": "Feature",
      "properties": {
        "norad_id": 30641,
        "name": "FENGYUN 1C DEB",
        "group": "fengyun-1c-debris",
        "lat": -3.9161647101893555,
        "lon": -78.82091282505925,
        "alt_km": 699.2786568675792,
        "timestamp": "2025-12-12T05:47:29.048648+00:00",
        "meta_object_name": "FENGYUN 1C DEB",
        "meta_object_id": "1999-025ANY",
        "meta_epoch": "2025-12-11T18:34:54.477696",
        "meta_mean_motion": 14.78949286,
        "meta_eccentricity": 0.01361893,
        "meta_inclination": 98.9413,
        "meta_ra_of_asc_node": 280.0427,
        "meta_arg_of_pericenter": 129.6242,
        "meta_mean_anomaly": 262.3989,
        "meta_ephemeris_type": 0,
        "meta_classification_type": "U",
        "meta_norad_cat_id": 30641,
        "meta_element_set_no": 999,
        "meta_rev_at_epoch": 518,
        "meta_bstar": 0.00078379483,
        "meta_mean_motion_dot": 6.697e-05,
        "meta_mean_motion_ddot": 0,
        "tle_line1": "1 30641U 99025ANY 25345.77424164  .00006697  00000+0  78379-3 0  9997",
        "tle_line2": "2 30641  98.9413 280.0427 0136189 129.6242 262.3989 14.78949286  5188"
      },
      "geometry": {
        "type": "Point",
        "coordinates": [
          -78.82091282505925,
          -3.9161647101893555
        ]
      }
    },
    {
      "type": "Feature",
      "properties": {
        "norad_id": 30646,
        "name": "FENGYUN 1C DEB",
        "group": "fengyun-1c-debris",
        "lat": -39.254757346370916,
        "lon": 179.6526807619033,
        "alt_km": 901.7469179653426,
        "timestamp": "2025-12-12T05:47:29.048659+00:00",
        "meta_object_name": "FENGYUN 1C DEB",
        "meta_object_id": "1999-025APD",
        "meta_epoch": "2025-12-11T23:38:34.887264",
        "meta_mean_motion": 14.09649793,
        "meta_eccentricity": 0.00482862,
        "meta_inclination": 98.652,
        "meta_ra_of_asc_node": 6.5539,
        "meta_arg_of_pericenter": 34.3062,
        "meta_mean_anomaly": 326.1212,
        "meta_ephemeris_type": 0,
        "meta_classification_type": "U",
        "meta_norad_cat_id": 30646,
        "meta_element_set_no": 999,
        "meta_rev_at_epoch": 96594,
        "meta_bstar": 0.0010329318,
        "meta_mean_motion_dot": 1.788e-05,
        "meta_mean_motion_ddot": 0,
        "tle_line1": "1 30646U 99025APD 25345.98512601  .00001788  00000+0  10329-2 0  9995",
        "tle_line2": "2 30646  98.6520   6.5539 0048286  34.3062 326.1212 14.09649793965947"
      },
      "geometry": {
        "type": "Point",
        "coordinates": [
          179.6526807619033,
          -39.254757346370916
        ]
      }
    },
    {
      "type": "Feature",
      "properties": {
        "norad_id": 30647,
        "name": "FENGYUN 1C DEB",
        "group": "fengyun-1c-debris",
        "lat": -54.39778708054156,
        "lon": 85.47422183115195,
        "alt_km": 701.1418508271508,
        "timestamp": "2025-12-12T05:47:29.048670+00:00",
        "meta_object_name": "FENGYUN 1C DEB",
        "meta_object_id": "1999-025APE",
        "meta_epoch": "2025-12-11T18:57:04.275648",
        "meta_mean_motion": 14.56448022,
        "meta_eccentricity": 0.00291516,
        "meta_inclination": 98.9886,
        "meta_ra_of_asc_node": 277.7597,
        "meta_arg_of_pericenter": 177.009,
        "meta_mean_anomaly": 211.1616,
        "meta_ephemeris_type": 0,
        "meta_classification_type": "U",
        "meta_norad_cat_id": 30647,
        "meta_element_set_no": 999,
        "meta_rev_at_epoch": 97975,
        "meta_bstar": 0.0035179044,
        "meta_mean_motion_dot": 0.000157,
        "meta_mean_motion_ddot": 0,
        "tle_line1": "1 30647U 99025APE 25345.78963282  .00015700  00000+0  35179-2 0  9998",
        "tle_line2": "2 30647  98.9886 277.7597 0029151 177.0090 211.1616 14.56448022979757"
      },
      "geometry": {
        "type": "Point",
        "coordinates": [
          85.47422183115195,
          -54.39778708054156
        ]
      }
    },
    {
      "type": "Feature",
      "properties": {
        "norad_id": 30648,
        "name": "FENGYUN 1C DEB",
        "group": "fengyun-1c-debris",
        "lat": 36.67718455547091,
        "lon": 74.38238521382168,
        "alt_km": 729.9531196592061,
        "timestamp": "2025-12-12T05:47:29.048680+00:00",
        "meta_object_name": "FENGYUN 1C DEB",
        "meta_object_id": "1999-025APF",
        "meta_epoch": "2025-12-11T18:42:45.503712",
        "meta_mean_motion": 14.48097618,
        "meta_eccentricity": 0.00344594,
        "meta_inclination": 98.641,
        "meta_ra_of_asc_node": 80.4135,
        "meta_arg_of_pericenter": 130.5822,
        "meta_mean_anomaly": 21.986,
        "meta_ephemeris_type": 0,
        "meta_classification_type": "U",
        "meta_norad_cat_id": 30648,
        "meta_element_set_no": 999,
        "meta_rev_at_epoch": 97852,
        "meta_bstar": 0.0035122445,
        "meta_mean_motion_dot": 0.00013144,
        "meta_mean_motion_ddot": 0,
        "tle_line1": "1 30648U 99025APF 25345.77969333  .00013144  00000+0  35122-2 0  9999",
        "tle_line2": "2 30648  98.6410  80.4135 0034459 130.5822  21.9860 14.48097618978523"
      },
      "geometry": {
        "type": "Point",
        "coordinates": [
          74.38238521382168,
          36.67718455547091
        ]
      }
    },
    {
      "type": "Feature",
      "properties": {
        "norad_id": 30649,
        "name": "FENGYUN 1C DEB",
        "group": "fengyun-1c-debris",
        "lat": -41.65604078397691,
        "lon": -106.38434400327871,
        "alt_km": 775.845288535229,
        "timestamp": "2025-12-12T05:47:29.048691+00:00",
        "meta_object_name": "FENGYUN 1C DEB",
        "meta_object_id": "1999-025APG",
        "meta_epoch": "2025-12-11T17:42:55.252800",
        "meta_mean_motion": 14.29515021,
        "meta_eccentricity": 0.00513349,
        "meta_inclination": 98.8086,
        "meta_ra_of_asc_node": 81.0358,
        "meta_arg_of_pericenter": 174.1478,
        "meta_mean_anomaly": 339.6058,
        "meta_ephemeris_type": 0,
        "meta_classification_type": "U",
        "meta_norad_cat_id": 30649,
        "meta_element_set_no": 999,
        "meta_rev_at_epoch": 97049,
        "meta_bstar": 0.0031483021,
        "meta_mean_motion_dot": 8.124e-05,
        "meta_mean_motion_ddot": 0,
        "tle_line1": "1 30649U 99025APG 25345.73813950  .00008124  00000+0  31483-2 0  9997",
        "tle_line2": "2 30649  98.8086  81.0358 0051334 174.1478 339.6058 14.29515021970499"
      },
      "geometry": {
        "type": "Point",
        "coordinates": [
          -106.38434400327871,
          -41.65604078397691
        ]
      }
    },
    {
      "type": "Feature",
      "properties": {
        "norad_id": 30650,
        "name": "FENGYUN 1C DEB",
        "group": "fengyun-1c-debris",
        "lat": -66.53466440597643,
        "lon": -175.11792406313504,
        "alt_km": 824.7386689324858,
        "timestamp": "2025-12-12T05:47:29.048701+00:00",
        "meta_object_name": "FENGYUN 1C DEB",
        "meta_object_id": "1999-025APH",
        "meta_epoch": "2025-12-11T01:35:31.801920",
        "meta_mean_motion": 14.13918858,
        "meta_eccentricity": 0.00721816,
        "meta_inclination": 99.2043,
        "meta_ra_of_asc_node": 25.6059,
        "meta_arg_of_pericenter": 194.2407,
        "meta_mean_anomaly": 195.9056,
        "meta_ephemeris_type": 0,
        "meta_classification_type": "U",
        "meta_norad_cat_id": 30650,
        "meta_element_set_no": 999,
        "meta_rev_at_epoch": 96275,
        "meta_bstar": 0.0022163733,
        "meta_mean_motion_dot": 4.265e-05,
        "meta_mean_motion_ddot": 0,
        "tle_line1": "1 30650U 99025APH 25345.06634030  .00004265  00000+0  22164-2 0  9993",
        "tle_line2": "2 30650  99.2043  25.6059 0072181 194.2407 195.9056 14.13918858962758"
      },
      "geometry": {
        "type": "Point",
        "coordinates": [
          -175.11792406313504,
          -66.53466440597643
        ]
      }
    },
    {
      "type": "Feature",
      "properties": {
        "norad_id": 30652,
        "name": "FENGYUN 1C DEB",
        "group": "fengyun-1c-debris",
        "lat": -38.428117441628565,
        "lon": 26.435266504144447,
        "alt_km": 870.1785577706023,
        "timestamp": "2025-12-12T05:47:29.048711+00:00",
        "meta_object_name": "FENGYUN 1C DEB",
        "meta_object_id": "1999-025APJ",
        "meta_epoch": "2025-12-12T01:00:02.206080",
        "meta_mean_motion": 14.0780437,
        "meta_eccentricity": 0.0007312,
        "meta_inclination": 98.7853,
        "meta_ra_of_asc_node": 19.1936,
        "meta_arg_of_pericenter": 267.3307,
        "meta_mean_anomaly": 122.6155,
        "meta_ephemeris_type": 0,
        "meta_classification_type": "U",
        "meta_norad_cat_id": 30652,
        "meta_element_set_no": 999,
        "meta_rev_at_epoch": 96684,
        "meta_bstar": 0.00020248037,
        "meta_mean_motion_dot": 3e-06,
        "meta_mean_motion_ddot": 0,
        "tle_line1": "1 30652U 99025APJ 25346.04169220  .00000300  00000+0  20248-3 0  9996",
        "tle_line2": "2 30652  98.7853  19.1936 0007312 267.3307 122.6155 14.07804370966847"
      },
      "geometry": {
        "type": "Point",
        "coordinates": [
          26.435266504144447,
          -38.428117441628565
        ]
      }
    }
  ]
}